NORAD_CAT_ID,OBJECT_NAME,OBJECT_TYPE,EPOCH,MEAN_MOTION,ECCENTRICITY,INCLINATION,RA_OF_ASC_NODE,ARG_OF_PERICENTER,MEAN_ANOMALY,BSTAR,MEAN_MOTION_DOT,MEAN_MOTION_DDOT,TLE_LINE0,TLE_LINE1,TLE_LINE2,SEMIMAJOR_AXIS,PERIOD,APOGEE,PERIGEE,DECAYED
52601.0,STARLINK-4027,PAYLOAD,2022-07-19 14:00:01,15.08837644,0.0001462,53.2122,125.7093,57.8868,70.181,0.0011568,0.00018169,0.0,0 STARLINK-4027,1 52601U 22052D   22200.58334491  .00018169  00000-0  11568-2 0  9996,2 52601  53.2122 125.7093 0001462  57.8868  70.1810 15.08837644 10579,6917.888000000001,95.438,540.764,538.741,0.0
52601.0,STARLINK-4027,PAYLOAD,2022-07-19 22:00:00,15.08868869,0.0001537,53.2141,124.2109,62.0714,77.596,-0.0039442,-0.00062564,0.0,0 STARLINK-4027,1 52601U 22052D   22200.91667824 -.00062564  00000-0 -39442-2 0  9993,2 52601  53.2141 124.2109 0001537  62.0714  77.5960 15.08868869  1304,6917.792,95.436,540.72,538.594,0.0
52601.0,STARLINK-4027,PAYLOAD,2022-07-20 14:00:01,15.08833144,0.0001486999999999,53.2127,121.2195,60.8721,102.0563,0.0014357,0.00022631,0.0,0 STARLINK-4027,1 52601U 22052D   22201.58334491  .00022631  00000-0  14357-2 0  9995,2 52601  53.2127 121.2195 0001487  60.8721 102.0563 15.08833144  1309,6917.901,95.438,540.795,538.738,0.0
52601.0,STARLINK-4027,PAYLOAD,2022-07-20 22:00:01,15.08872947,0.0001604,53.2135,119.7236,62.3138,112.2655,-0.0056708999999999,-0.00089502,0.0,0 STARLINK-4027,1 52601U 22052D   22201.91668981 -.00089502  00000-0 -56709-2 0  9995,2 52601  53.2135 119.7236 0001604  62.3138 112.2655 15.08872947 10776,6917.78,95.435,540.754,538.535,0.0
52601.0,STARLINK-4027,PAYLOAD,2022-07-21 14:00:01,15.08779292,0.0001528,53.2132,116.73,61.99100000000001,135.7316,0.002534,0.00040204,0.0,0 STARLINK-4027,1 52601U 22052D   22202.58335648  .00040204  00000-0  25340-2 0  9991,2 52601  53.2132 116.7300 0001528  61.9910 135.7316 15.08779292  1302,6918.066,95.441,540.988,538.874,0.0
52601.0,STARLINK-4027,PAYLOAD,2022-07-21 22:00:00,15.08818122,0.0001634,53.2134,115.2346,62.1265,147.0667,-0.0011991,-0.0001931,0.0,0 STARLINK-4027,1 52601U 22052D   22202.91667824 -.00019310  00000-0 -11991-2 0  9995,2 52601  53.2134 115.2346 0001634  62.1265 147.0667 15.08818122  1303,6917.946999999999,95.439,540.943,538.682,0.0
52601.0,STARLINK-4027,PAYLOAD,2022-07-22 06:00:00,15.08804302,0.0001706999999999,53.2132,113.739,55.8724,164.8908,0.0027213,0.00043245,0.0,0 STARLINK-4027,1 52601U 22052D   22203.25001157  .00043245  00000-0  27213-2 0  9990,2 52601  53.2132 113.7390 0001707  55.8724 164.8908 15.08804302  1303,6917.99,95.44,541.035,538.674,0.0
52601.0,STARLINK-4027,PAYLOAD,2022-07-22 22:00:00,15.08858276,0.0001692,53.2136,110.7453,62.4374,181.4902,-0.00063459,-0.00010379,0.0,0 STARLINK-4027,1 52601U 22052D   22203.91667824 -.00010379  00000-0 -63459-3 0  9999,2 52601  53.2136 110.7453 0001692  62.4374 181.4902 15.08858276  1300,6917.825,95.436,540.86,538.519,0.0
52601.0,STARLINK-4027,PAYLOAD,2022-07-23 08:00:01,15.0888259,0.0001668,53.2139,108.8743,56.1751,292.2492,-0.0042568,-0.0006747999999999,0.0,0 STARLINK-4027,1 52601U 22052D   22204.33334491 -.00067480  00000-0 -42568-2 0  9999,2 52601  53.2139 108.8743 0001668  56.1751 292.2492 15.08882590 11149,6917.75,95.435,540.769,538.461,0.0
52601.0,STARLINK-4027,PAYLOAD,2022-07-23 14:00:01,15.0881049,0.0001576999999999,53.2139,107.7512,61.3211,205.8778,0.0026785,0.00042564,0.0,0 STARLINK-4027,1 52601U 22052D   22204.58335648  .00042564  00000-0  26785-2 0  9998,2 52601  53.2139 107.7512 0001577  61.3211 205.8778 15.08810490  1303,6917.971,95.439,540.927,538.745,0.0
52601.0,STARLINK-4027,PAYLOAD,2022-07-23 22:00:00,15.08853646,0.0001696999999999,53.2142,106.256,59.8564,218.8618,-0.00080013,-0.00013004,0.0,0 STARLINK-4027,1 52601U 22052D   22204.91667824 -.00013004  00000-0 -80013-3 0  9993,2 52601  53.2142 106.2560 0001697  59.8564 218.8618 15.08853646  1307,6917.839,95.437,540.878,538.53,0.0
52601.0,STARLINK-4027,PAYLOAD,2022-07-24 14:00:01,15.08839459,0.00016,53.2146,103.262,61.6859,240.2412,0.00046108,7.058e-05,0.0,0 STARLINK-4027,1 52601U 22052D   22205.58334491  .00007058  00000-0  46108-3 0  9995,2 52601  53.2146 103.2620 0001600  61.6859 240.2412 15.08839459  1304,6917.882,95.438,540.854,538.64,0.0
52601.0,STARLINK-4027,PAYLOAD,2022-07-24 22:00:00,15.08845502,0.0001678,53.2148,101.7668,58.2273,255.2974,-0.0011236,-0.00018128,0.0,0 STARLINK-4027,1 52601U 22052D   22205.91667824 -.00018128  00000-0 -11236-2 0  9996,2 52601  53.2148 101.7668 0001678  58.2273 255.2974 15.08845502  1303,6917.864000000001,95.437,540.889,538.568,0.0
52601.0,STARLINK-4027,PAYLOAD,2022-07-25 06:00:00,15.08842094,0.0001716,53.2147,100.2709,54.1037,271.0104,0.00030891,4.632e-05,0.0,0 STARLINK-4027,1 52601U 22052D   22206.25001157  .00004632  00000-0  30891-3 0  9997,2 52601  53.2147 100.2709 0001716  54.1037 271.0104 15.08842094 11437,6917.874,95.437,540.9259999999998,538.552,0.0
52601.0,STARLINK-4027,PAYLOAD,2022-07-25 14:00:01,15.08831815,0.0001625,53.2151,98.7729,63.3144,273.4061,0.0011837,0.00018597,0.0,0 STARLINK-4027,1 52601U 22052D   22206.58334491  .00018597  00000-0  11837-2 0  9996,2 52601  53.2151  98.7729 0001625  63.3144 273.4061 15.08831815  1307,6917.905,95.438,540.895,538.646,0.0
52601.0,STARLINK-4027,PAYLOAD,2022-07-25 22:00:00,15.08840751,0.0001818,53.2152,97.2778,61.317,286.9983,-0.0018687,-0.00029906,0.0,0 STARLINK-4027,1 52601U 22052D   22206.91667824 -.00029906  00000-0 -18687-2 0  9990,2 52601  53.2152  97.2778 0001818  61.3170 286.9983 15.08840751  1308,6917.878000000002,95.438,541.001,538.485,0.0
52601.0,STARLINK-4027,PAYLOAD,2022-07-26 06:00:00,15.0883383,0.0001828,53.2149,95.7817,58.2526,301.6409,-0.00037393,-6.233e-05,0.0,0 STARLINK-4027,1 52601U 22052D   22207.25001157 -.00006233  00000-0 -37393-3 0  9993,2 52601  53.2149  95.7817 0001828  58.2526 301.6409 15.08833830 11581,6917.899,95.438,541.029,538.5,0.0
52601.0,STARLINK-4027,PAYLOAD,2022-07-26 14:00:01,15.088096900000002,0.0001703,53.2151,94.2839,67.0133,304.476,0.0033101999999999,0.00052745,0.0,0 STARLINK-4027,1 52601U 22052D   22207.58334491  .00052745  00000-0  33102-2 0  9999,2 52601  53.2151  94.2839 0001703  67.0133 304.4760 15.08809690  1303,6917.973000000001,95.439,541.016,538.66,0.0
52601.0,STARLINK-4027,PAYLOAD,2022-07-26 22:00:00,15.08867919,0.000174,53.2151,92.789,63.2948,319.7968,-0.0021883,-0.00034973,0.0,0 STARLINK-4027,1 52601U 22052D   22207.91667824 -.00034973  00000-0 -21883-2 0  9993,2 52601  53.2151  92.7890 0001740  63.2948 319.7968 15.08867919 11685,6917.795,95.436,540.864,538.456,0.0
52601.0,STARLINK-4027,PAYLOAD,2022-07-27 14:00:01,15.08811418,0.0001541999999999,53.2147,89.7947,68.8669,337.4417,0.0030922,0.0004923,0.0,0 STARLINK-4027,1 52601U 22052D   22208.58334491  .00049230  00000-0  30922-2 0  9992,2 52601  53.2147  89.7947 0001542  68.8669 337.4417 15.08811418  1307,6917.968000000003,95.439,540.9,538.766,0.0
52601.0,STARLINK-4027,PAYLOAD,2022-07-27 22:00:00,15.08847072,0.0001672,53.2146,88.3,63.9959,353.8945,-0.0012144999999999,-0.00019569,0.0,0 STARLINK-4027,1 52601U 22052D   22208.91667824 -.00019569  00000-0 -12145-2 0  9999,2 52601  53.2146  88.3000 0001672  63.9959 353.8945 15.08847072  1306,6917.859,95.437,540.88,538.567,0.0
52601.0,STARLINK-4027,PAYLOAD,2022-07-28 00:00:00,15.08833882,0.0001696999999999,53.2147,87.9262,62.7524,88.0405,0.0004868999999999,7.468e-05,0.0,0 STARLINK-4027,1 52601U 22052D   22209.00001157  .00007468  00000-0  48690-3 0  9999,2 52601  53.2147  87.9262 0001697  62.7524  88.0405 15.08833882 11846,6917.899,95.438,540.938,538.59,0.0
52601.0,STARLINK-4027,PAYLOAD,2022-07-28 14:00:01,15.08827512,0.0001509,53.2141,85.3055,70.2154,10.877,0.00026093,3.866e-05,0.0,0 STARLINK-4027,1 52601U 22052D   22209.58334491  .00003866  00000-0  26093-3 0  9993,2 52601  53.2141  85.3055 0001509  70.2154  10.8770 15.08827512  1308,6917.919,95.438,540.827,538.74,0.0
52601.0,STARLINK-4027,PAYLOAD,2022-07-28 22:00:00,15.08830299,0.0001634,53.2154,83.8093,64.0986,28.5775,-0.0010377,-0.00016761,0.0,0 STARLINK-4027,1 52601U 22052D   22209.91667824 -.00016761  00000-0 -10377-2 0  9996,2 52601  53.2154  83.8093 0001634  64.0986  28.5775 15.08830299  1307,6917.91,95.438,540.905,538.645,0.0
52601.0,STARLINK-4027,PAYLOAD,2022-07-29 00:00:00,15.08817477,0.0001684,53.2157,83.4352,62.7313,122.8429,0.00061997,9.587e-05,0.0,0 STARLINK-4027,1 52601U 22052D   22210.00001157  .00009587  00000-0  61997-3 0  9990,2 52601  53.2157  83.4352 0001684  62.7313 122.8429 15.08817477 11991,6917.949000000001,95.439,540.979,538.649,0.0
52601.0,STARLINK-4027,PAYLOAD,2022-07-29 14:00:01,15.08816389,0.0001530999999999,53.2137,80.8161,70.3752,45.4585,0.002326,0.00036901,0.0,0 STARLINK-4027,1 52601U 22052D   22210.58334491  .00036901  00000-0  23260-2 0  9993,2 52601  53.2137  80.8161 0001531  70.3752  45.4585 15.08816389  1309,6917.953,95.439,540.877,538.758,0.0
52601.0,STARLINK-4027,PAYLOAD,2022-07-29 22:00:00,15.08836904,0.0001662,53.2137,79.3214,64.1308,63.2844,-0.00078749,-0.00012798,0.0,0 STARLINK-4027,1 52601U 22052D   22210.91667824 -.00012798  00000-0 -78749-3 0  9992,2 52601  53.2137  79.3214 0001662  64.1308  63.2844 15.08836904  1305,6917.89,95.438,540.905,538.605,0.0
52601.0,STARLINK-4027,PAYLOAD,2022-07-30 06:00:00,15.08852254,0.0001633,53.2135,77.8244,62.5881,76.4099,-0.0015933,-0.00025565,0.0,0 STARLINK-4027,1 52601U 22052D   22211.25001157 -.00025565  00000-0 -15933-2 0  9992,2 52601  53.2135  77.8244 0001633  62.5881  76.4099 15.08852254 12187,6917.843000000003,95.437,540.8380000000002,538.578,0.0
52601.0,STARLINK-4027,PAYLOAD,2022-07-30 14:00:01,15.08831019,0.0001608,53.2137,76.3265,70.7366,79.8617,0.0019795999999999,0.0003135,0.0,0 STARLINK-4027,1 52601U 22052D   22211.58334491  .00031350  00000-0  19796-2 0  9996,2 52601  53.2137  76.3265 0001608  70.7366  79.8617 15.08831019  1308,6917.908,95.438,540.885,538.66,0.0
